SL-16 R/B               
1 25400U 98043G   26055.82152891  .00000066  00000+0  46528-4 0  9999
2 25400  98.8231   9.0957 0010751  55.2481 304.9709 14.26046407437159
SL-16 R/B               
1 25407U 98045B   26055.50605661 -.00000093  00000+0 -22730-4 0  9992
2 25407  71.0105 209.2968 0006038  29.5832 330.5631 14.16191329425230
ISS (ZARYA)             
1 25544U 98067A   26055.86355972  .00009683  00000+0  18823-3 0  9993
2 25544  51.6318 135.7592 0008386 130.0533 230.1192 15.48271528554340
CZ-4B R/B               
1 25732U 99025C   26056.10097651  .00000037  00000+0  38427-4 0  9999
2 25732  98.6655 100.6792 0037441  22.8347   3.3980 14.18262500386380
OKEAN-O                 
1 25860U 99039A   26056.14710125  .00000586  00000+0  83711-4 0  9993
2 25860  97.9471 116.1643 0001603  75.9910 284.1480 14.80312191432537
SL-16 R/B               
1 25861U 99039B   26056.13879798  .00000503  00000+0  70666-4 0  9999
2 25861  97.9995 115.2524 0013576 300.9331  59.0546 14.81711326435008
DELTA 2 R/B             
1 25876U 99041E   26056.12374796  .00001497  00000+0  27853-3 0  9997
2 25876  51.7659 351.4652 0502259 311.3285  44.5438 14.11787834361254
HELIOS 1B               
1 25977U 99064A   26056.13618756  .00001542  00000+0  17592-3 0  9992
2 25977  98.1709 318.0099 0002459  91.9137 268.2360 14.87638190683399
TERRA                   
1 25994U 99068A   26056.11202520  .00000392  00000+0  88949-4 0  9998
2 25994  97.9622 110.0256 0001816 184.8878 227.6653 14.60999197393248
SL-16 R/B               
1 26070U 00006B   26056.15391622  .00000254  00000+0  15348-3 0  9993
2 26070  71.0019 124.1973 0017569 207.3855 152.6344 14.15820351346783
TITAN 4B R/B            
1 26474U 00047B   26056.17321062  .00003025  00000+0  19400-3 0  9991
2 26474  67.9884  75.7040 0037779  50.4535 309.9942 15.09430294391023
ENVISAT                 
1 27386U 02009A   26055.87968343  .00000128  00000+0  55327-4 0  9999
2 27386  98.3705   9.7838 0001370  86.1101 293.0758 14.39031501257334
